{
    "links": {
        "self": "http://www.neowsapp.com/rest/v1/neo/3387456?api_key=iIulBulltgU6a56xZRHN4H3l9WmuAYTsLGpBGhQ2"
    },
    "id": "3387456",
    "neo_reference_id": "3387456",
    "name": "(2007 TD1)",
    "designation": "2007 TD1",
    "nasa_jpl_url": "http://ssd.jpl.nasa.gov/sbdb.cgi?sstr=3387456",
    "absolute_magnitude_h": 25.4,
    "estimated_diameter": {
        "kilometers": {
            "estimated_diameter_min": 0.022108281,
            "estimated_diameter_max": 0.0494356193
        },
        "meters": {
            "estimated_diameter_min": 22.1082810359,
            "estimated_diameter_max": 49.435619262
        },
        "miles": {
            "estimated_diameter_min": 0.0137374447,
            "estimated_diameter_max": 0.0307178602
        },
        "feet": {
            "estimated_diameter_min": 72.5337327539,
            "estimated_diameter_max": 162.1903570994
        }
    },
    "is_potentially_hazardous_asteroid": false,
    "close_approach_data": [
        {
            "close_approach_date": "2007-10-02",
            "close_approach_date_full": "2007-Oct-02 04:12",
            "epoch_date_close_approach": 1191298320000,
            "relative_velocity": {
                "kilometers_per_second": "6.7271796367",
                "kilometers_per_hour": "24217.8466920288",
                "miles_per_hour": "15048.0281292776"
            },
            "miss_distance": {
                "astronomical": "0.0486460441",
                "lunar": "18.9233111549",
                "kilometers": "7277344.581286067",
                "miles": "4521932.2380270446"
            },
            "orbiting_body": "Earth"
        }
    ],
    "orbital_data": {
        "orbit_id": "11",
        "orbit_determination_date": "2017-04-06 09:05:53",
        "first_observation_date": "2007-10-04",
        "last_observation_date": "2007-11-03",
        "data_arc_in_days": 30,
        "observations_used": 36,
        "orbit_uncertainty": "7",
        "minimum_orbit_intersection": ".0501262",
        "jupiter_tisserand_invariant": "3.299",
        "epoch_osculation": "2459000.5",
        "eccentricity": ".5603502920271328",
        "semi_major_axis": "2.390210869140297",
        "inclination": "2.049944959397787",
        "ascending_node_longitude": "7.476687630632601",
        "orbital_period": "1349.748185489178",
        "perihelion_distance": "1.050855510611105",
        "perihelion_argument": "1.05087595315207",
        "aphelion_distance": "3.729566227669489",
        "perihelion_time": "2458428.487142883046",
        "mean_anomaly": "152.5652197765112",
        "mean_motion": ".2667164170845158",
        "equinox": "J2000",
        "orbit_class": {
            "orbit_class_type": "AMO",
            "orbit_class_description": "Near-Earth asteroid orbits similar to that of 1221 Amor",
            "orbit_class_range": "1.017 AU < q (perihelion) < 1.3 AU"
        }
    },
    "is_sentry_object": false
}